CCSDS_OMM_VERS = 2.0
CREATION_DATE  = 
ORIGINATOR     = 

OBJECT_NAME    = STARLINK-36265
OBJECT_ID      = 2025-304S
CENTER_NAME    = EARTH
REF_FRAME      = TEME
TIME_SYSTEM    = UTC
MEAN_ELEMENT_THEORY = SGP/SGP4

EPOCH          = 2026-01-01T06:00:02.000160
MEAN_MOTION    = 15.68680486
ECCENTRICITY   = .00032413
INCLINATION    = 69.9997
RA_OF_ASC_NODE = 352.2930
ARG_OF_PERICENTER = 272.1798
MEAN_ANOMALY   = 258.6506

EPHEMERIS_TYPE = 0
CLASSIFICATION_TYPE = U
NORAD_CAT_ID   = 67208
ELEMENT_SET_NO = 999
REV_AT_EPOCH   = 360
BSTAR          = -.19641336E-1
MEAN_MOTION_DOT = -.198235E-1
MEAN_MOTION_DDOT = 0

CCSDS_OMM_VERS = 2.0
CREATION_DATE  = 
ORIGINATOR     = 

OBJECT_NAME    = STARLINK-36226
OBJECT_ID      = 2025-304T
CENTER_NAME    = EARTH
REF_FRAME      = TEME
TIME_SYSTEM    = UTC
MEAN_ELEMENT_THEORY = SGP/SGP4

EPOCH          = 2026-01-01T06:00:02.000160
MEAN_MOTION    = 15.68678512
ECCENTRICITY   = .00032633
INCLINATION    = 69.9997
RA_OF_ASC_NODE = 352.2910
ARG_OF_PERICENTER = 274.0825
MEAN_ANOMALY   = 258.6642

EPHEMERIS_TYPE = 0
CLASSIFICATION_TYPE = U
NORAD_CAT_ID   = 67209
ELEMENT_SET_NO = 999
REV_AT_EPOCH   = 360
BSTAR          = -.19605179E-1
MEAN_MOTION_DOT = -.1979006E-1
MEAN_MOTION_DDOT = 0

CCSDS_OMM_VERS = 2.0
CREATION_DATE  = 
ORIGINATOR     = 

OBJECT_NAME    = STARLINK-36173
OBJECT_ID      = 2025-304U
CENTER_NAME    = EARTH
REF_FRAME      = TEME
TIME_SYSTEM    = UTC
MEAN_ELEMENT_THEORY = SGP/SGP4

EPOCH          = 2026-01-01T06:00:02.000160
MEAN_MOTION    = 15.68679588
ECCENTRICITY   = .00032289
INCLINATION    = 69.9994
RA_OF_ASC_NODE = 352.2887
ARG_OF_PERICENTER = 273.9789
MEAN_ANOMALY   = 260.6858

EPHEMERIS_TYPE = 0
CLASSIFICATION_TYPE = U
NORAD_CAT_ID   = 67210
ELEMENT_SET_NO = 999
REV_AT_EPOCH   = 360
BSTAR          = -.19646339E-1
MEAN_MOTION_DOT = -.1982719E-1
MEAN_MOTION_DDOT = 0

CCSDS_OMM_VERS = 2.0
CREATION_DATE  = 
ORIGINATOR     = 

OBJECT_NAME    = STARLINK-36280
OBJECT_ID      = 2025-304V
CENTER_NAME    = EARTH
REF_FRAME      = TEME
TIME_SYSTEM    = UTC
MEAN_ELEMENT_THEORY = SGP/SGP4

EPOCH          = 2026-01-01T06:00:02.000160
MEAN_MOTION    = 15.68679625
ECCENTRICITY   = .0003351
INCLINATION    = 69.9996
RA_OF_ASC_NODE = 352.2861
ARG_OF_PERICENTER = 273.7798
MEAN_ANOMALY   = 262.8016

EPHEMERIS_TYPE = 0
CLASSIFICATION_TYPE = U
NORAD_CAT_ID   = 67211
ELEMENT_SET_NO = 999
REV_AT_EPOCH   = 360
BSTAR          = -.19646085E-1
MEAN_MOTION_DOT = -.1982819E-1
MEAN_MOTION_DDOT = 0

CCSDS_OMM_VERS = 2.0
CREATION_DATE  = 
ORIGINATOR     = 

OBJECT_NAME    = STARLINK-36213
OBJECT_ID      = 2025-304W
CENTER_NAME    = EARTH
REF_FRAME      = TEME
TIME_SYSTEM    = UTC
MEAN_ELEMENT_THEORY = SGP/SGP4

EPOCH          = 2026-01-01T06:00:02.000160
MEAN_MOTION    = 15.68677770
ECCENTRICITY   = .00031116
INCLINATION    = 69.9994
RA_OF_ASC_NODE = 352.2846
ARG_OF_PERICENTER = 273.8537
MEAN_ANOMALY   = 264.6445

EPHEMERIS_TYPE = 0
CLASSIFICATION_TYPE = U
NORAD_CAT_ID   = 67212
ELEMENT_SET_NO = 999
REV_AT_EPOCH   = 360
BSTAR          = -.19624905E-1
MEAN_MOTION_DOT = -.1980565E-1
MEAN_MOTION_DDOT = 0

CCSDS_OMM_VERS = 2.0
CREATION_DATE  = 
ORIGINATOR     = 

OBJECT_NAME    = STARLINK-36199
OBJECT_ID      = 2025-304X
CENTER_NAME    = EARTH
REF_FRAME      = TEME
TIME_SYSTEM    = UTC
MEAN_ELEMENT_THEORY = SGP/SGP4

EPOCH          = 2026-01-01T06:00:02.000160
MEAN_MOTION    = 15.68683176
ECCENTRICITY   = .00032446
INCLINATION    = 69.9995
RA_OF_ASC_NODE = 352.2819
ARG_OF_PERICENTER = 274.0533
MEAN_ANOMALY   = 266.3597

EPHEMERIS_TYPE = 0
CLASSIFICATION_TYPE = U
NORAD_CAT_ID   = 67213
ELEMENT_SET_NO = 999
REV_AT_EPOCH   = 360
BSTAR          = -.19703985E-1
MEAN_MOTION_DOT = -.1988129E-1
MEAN_MOTION_DDOT = 0

CCSDS_OMM_VERS = 2.0
CREATION_DATE  = 
ORIGINATOR     = 

OBJECT_NAME    = STARLINK-36203
OBJECT_ID      = 2025-304Y
CENTER_NAME    = EARTH
REF_FRAME      = TEME
TIME_SYSTEM    = UTC
MEAN_ELEMENT_THEORY = SGP/SGP4

EPOCH          = 2026-01-01T06:00:02.000160
MEAN_MOTION    = 15.68678074
ECCENTRICITY   = .00030696
INCLINATION    = 69.9994
RA_OF_ASC_NODE = 352.2794
ARG_OF_PERICENTER = 270.6104
MEAN_ANOMALY   = 271.7166

EPHEMERIS_TYPE = 0
CLASSIFICATION_TYPE = U
NORAD_CAT_ID   = 67214
ELEMENT_SET_NO = 999
REV_AT_EPOCH   = 360
BSTAR          = -.19584421E-1
MEAN_MOTION_DOT = -.1976938E-1
MEAN_MOTION_DDOT = 0

CCSDS_OMM_VERS = 2.0
CREATION_DATE  = 
ORIGINATOR     = 

OBJECT_NAME    = STARLINK-36221
OBJECT_ID      = 2025-304Z
CENTER_NAME    = EARTH
REF_FRAME      = TEME
TIME_SYSTEM    = UTC
MEAN_ELEMENT_THEORY = SGP/SGP4

EPOCH          = 2026-01-01T06:00:02.000160
MEAN_MOTION    = 15.68680847
ECCENTRICITY   = .00031834
INCLINATION    = 69.9993
RA_OF_ASC_NODE = 352.2771
ARG_OF_PERICENTER = 273.5482
MEAN_ANOMALY   = 270.6964

EPHEMERIS_TYPE = 0
CLASSIFICATION_TYPE = U
NORAD_CAT_ID   = 67215
ELEMENT_SET_NO = 999
REV_AT_EPOCH   = 360
BSTAR          = -.19644034E-1
MEAN_MOTION_DOT = -.1982561E-1
MEAN_MOTION_DDOT = 0

CCSDS_OMM_VERS = 2.0
CREATION_DATE  = 
ORIGINATOR     = 

OBJECT_NAME    = STARLINK-36212
OBJECT_ID      = 2025-304AA
CENTER_NAME    = EARTH
REF_FRAME      = TEME
TIME_SYSTEM    = UTC
MEAN_ELEMENT_THEORY = SGP/SGP4

EPOCH          = 2026-01-01T06:00:02.000160
MEAN_MOTION    = 15.68683092
ECCENTRICITY   = .00032632
INCLINATION    = 69.9994
RA_OF_ASC_NODE = 352.2751
ARG_OF_PERICENTER = 273.8739
MEAN_ANOMALY   = 272.2868

EPHEMERIS_TYPE = 0
CLASSIFICATION_TYPE = U
NORAD_CAT_ID   = 67216
ELEMENT_SET_NO = 999
REV_AT_EPOCH   = 360
BSTAR          = -.19683869E-1
MEAN_MOTION_DOT = -.198635E-1
MEAN_MOTION_DDOT = 0

CCSDS_OMM_VERS = 2.0
CREATION_DATE  = 
ORIGINATOR     = 

OBJECT_NAME    = STARLINK-36216
OBJECT_ID      = 2025-304AB
CENTER_NAME    = EARTH
REF_FRAME      = TEME
TIME_SYSTEM    = UTC
MEAN_ELEMENT_THEORY = SGP/SGP4

EPOCH          = 2026-01-01T06:00:02.000160
MEAN_MOTION    = 15.68683139
ECCENTRICITY   = .00033682
INCLINATION    = 69.9992
RA_OF_ASC_NODE = 352.2730
ARG_OF_PERICENTER = 274.0424
MEAN_ANOMALY   = 274.0337

EPHEMERIS_TYPE = 0
CLASSIFICATION_TYPE = U
NORAD_CAT_ID   = 67217
ELEMENT_SET_NO = 999
REV_AT_EPOCH   = 360
BSTAR          = -.19671567E-1
MEAN_MOTION_DOT = -.1985361E-1
MEAN_MOTION_DDOT = 0

CCSDS_OMM_VERS = 2.0
CREATION_DATE  = 
ORIGINATOR     = 

OBJECT_NAME    = STARLINK-36211
OBJECT_ID      = 2025-304AC
CENTER_NAME    = EARTH
REF_FRAME      = TEME
TIME_SYSTEM    = UTC
MEAN_ELEMENT_THEORY = SGP/SGP4

EPOCH          = 2026-01-01T06:00:02.000160
MEAN_MOTION    = 15.68681848
ECCENTRICITY   = .00032942
INCLINATION    = 69.9995
RA_OF_ASC_NODE = 352.2708
ARG_OF_PERICENTER = 274.0420
MEAN_ANOMALY   = 275.9531

EPHEMERIS_TYPE = 0
CLASSIFICATION_TYPE = U
NORAD_CAT_ID   = 67218
ELEMENT_SET_NO = 999
REV_AT_EPOCH   = 357
BSTAR          = -.19677088E-1
MEAN_MOTION_DOT = -.1985686E-1
MEAN_MOTION_DDOT = 0

CCSDS_OMM_VERS = 2.0
CREATION_DATE  = 
ORIGINATOR     = 

OBJECT_NAME    = DISKSAT A
OBJECT_ID      = 2025-305A
CENTER_NAME    = EARTH
REF_FRAME      = TEME
TIME_SYSTEM    = UTC
MEAN_ELEMENT_THEORY = SGP/SGP4

EPOCH          = 2025-12-20T09:08:30.149664
MEAN_MOTION    = 15.05762698
ECCENTRICITY   = .0003912
INCLINATION    = 45.0057
RA_OF_ASC_NODE = 310.0654
ARG_OF_PERICENTER = 276.1097
MEAN_ANOMALY   = 83.9332

EPHEMERIS_TYPE = 0
CLASSIFICATION_TYPE = U
NORAD_CAT_ID   = 67219
ELEMENT_SET_NO = 999
REV_AT_EPOCH   = 33
BSTAR          = .50887E-4
MEAN_MOTION_DOT = .51E-5
MEAN_MOTION_DDOT = 0

