STARLINK-36265          
1 67208U 25304S   26001.25002315 -.01982350  00000+0 -19641-1 0  9995
2 67208  69.9997 352.2930 0003241 272.1798 258.6506 15.68680486  3607
STARLINK-36226          
1 67209U 25304T   26001.25002315 -.01979006  00000+0 -19605-1 0  9990
2 67209  69.9997 352.2910 0003263 274.0825 258.6642 15.68678512  3600
STARLINK-36173          
1 67210U 25304U   26001.25002315 -.01982719  00000+0 -19646-1 0  9992
2 67210  69.9994 352.2887 0003228 273.9789 260.6858 15.68679588  3606
STARLINK-36280          
1 67211U 25304V   26001.25002315 -.01982819  00000+0 -19646-1 0  9994
2 67211  69.9996 352.2861 0003351 273.7798 262.8016 15.68679625  3608
STARLINK-36213          
1 67212U 25304W   26001.25002315 -.01980565  00000+0 -19625-1 0  9998
2 67212  69.9994 352.2846 0003111 273.8537 264.6445 15.68677770  3601
STARLINK-36199          
1 67213U 25304X   26001.25002315 -.01988129  00000+0 -19704-1 0  9991
2 67213  69.9995 352.2819 0003244 274.0533 266.3597 15.68683176  3603
STARLINK-36203          
1 67214U 25304Y   26001.25002315 -.01976938  00000+0 -19584-1 0  9993
2 67214  69.9994 352.2794 0003069 270.6104 271.7166 15.68678074  3609
STARLINK-36221          
1 67215U 25304Z   26001.25002315 -.01982561  00000+0 -19644-1 0  9990
2 67215  69.9993 352.2771 0003183 273.5482 270.6964 15.68680847  3607
STARLINK-36212          
1 67216U 25304AA  26001.25002315 -.01986350  00000+0 -19684-1 0  9995
2 67216  69.9994 352.2751 0003263 273.8739 272.2868 15.68683092  3600
STARLINK-36216          
1 67217U 25304AB  26001.25002315 -.01985361  00000+0 -19672-1 0  9994
2 67217  69.9992 352.2730 0003368 274.0424 274.0337 15.68683139  3609
STARLINK-36211          
1 67218U 25304AC  26001.25002315 -.01985686  00000+0 -19677-1 0  9990
2 67218  69.9995 352.2708 0003294 274.0420 275.9531 15.68681848  3579
DISKSAT A               
1 67219U 25305A   25354.38090451  .00000510  00000+0  50887-4 0  9996
2 67219  45.0057 310.0654 0003912 276.1097  83.9332 15.05762698   337
